start=new Date('2023-04-11T00:00:00.000Z').valueOf();
sats=[{"INCLINATION":"43.0002","PERIOD":"95.838","COUNTRY_CODE":"US","ARG_OF_PERICENTER":"266.4275","TLE_LINE1":"1 54821U 22177B   23100.85231085  .00002573  00000-0  20548-3 0  9996","ECCENTRICITY":"0.00010650","FILE":"3885363","NORAD_CAT_ID":"54821","REF_FRAME":"TEME","GP_ID":"229881623","OBJECT_TYPE":"PAYLOAD","SITE":"AFETR","SEMIMAJOR_AXIS":"6937.204","RCS_SIZE":"LARGE","LAUNCH_DATE":"2022-12-28","EPHEMERIS_TYPE":"0","RA_OF_ASC_NODE":"154.1726","CENTER_NAME":"EARTH","MEAN_MOTION_DDOT":"0.0000000000000","TIME_SYSTEM":"UTC","TLE_LINE2":"2 54821  43.0002 154.1726 0001065 266.4275  93.6445 15.02539974 16925","MEAN_ANOMALY":"93.6445","PERIAPSIS":"558.330","BSTAR":"0.00020548000000","APOAPSIS":"559.808","MEAN_ELEMENT_THEORY":"SGP4","ELEMENT_SET_NO":"999","MEAN_MOTION":"15.02539974","EPOCH":"2023-04-10T20:27:19.657440","CLASSIFICATION_TYPE":"U","MEAN_MOTION_DOT":"0.00002573","REV_AT_EPOCH":"1692","OBJECT_NAME":"STARLINK-5385","DECAY_DATE":null,"OBJECT_ID":"2022-177B"},{"COUNTRY_CODE":"US","ARG_OF_PERICENTER":"283.5209","TLE_LINE1":"1 54822U 22177C   23100.83677348  .00003608  00000-0  28199-3 0  9991","ECCENTRICITY":"0.00012610","INCLINATION":"43.0003","PERIOD":"95.838","FILE":"3885363","GP_ID":"229882378","SITE":"AFETR","OBJECT_TYPE":"PAYLOAD","SEMIMAJOR_AXIS":"6937.195","RCS_SIZE":"LARGE","NORAD_CAT_ID":"54822","REF_FRAME":"TEME","RA_OF_ASC_NODE":"154.0580","EPHEMERIS_TYPE":"0","LAUNCH_DATE":"2022-12-28","TLE_LINE2":"2 54822  43.0003 154.0580 0001261 283.5209  76.5493 15.02543098 16924","MEAN_MOTION_DDOT":"0.0000000000000","TIME_SYSTEM":"UTC","CENTER_NAME":"EARTH","MEAN_ELEMENT_THEORY":"SGP4","MEAN_ANOMALY":"76.5493","PERIAPSIS":"558.185","BSTAR":"0.00028199000000","APOAPSIS":"559.934","CLASSIFICATION_TYPE":"U","EPOCH":"2023-04-10T20:04:57.228672","ELEMENT_SET_NO":"999","MEAN_MOTION":"15.02543098","REV_AT_EPOCH":"1692","OBJECT_NAME":"STARLINK-5101","DECAY_DATE":null,"OBJECT_ID":"2022-177C","MEAN_MOTION_DOT":"0.00003608"},{"COUNTRY_CODE":"US","ARG_OF_PERICENTER":"269.1342","ECCENTRICITY":"0.00013720","TLE_LINE1":"1 54823U 22177D   23100.85008956  .00005251  00000-0  40343-3 0  9998","INCLINATION":"43.0003","PERIOD":"95.837","FILE":"3885363","GP_ID":"229883117","SITE":"AFETR","OBJECT_TYPE":"PAYLOAD","SEMIMAJOR_AXIS":"6937.192","RCS_SIZE":"LARGE","NORAD_CAT_ID":"54823","REF_FRAME":"TEME","EPHEMERIS_TYPE":"0","RA_OF_ASC_NODE":"154.1570","LAUNCH_DATE":"2022-12-28","TLE_LINE2":"2 54823  43.0003 154.1570 0001372 269.1342  90.9343 15.02543949 16925","TIME_SYSTEM":"UTC","MEAN_MOTION_DDOT":"0.0000000000000","CENTER_NAME":"EARTH","MEAN_ELEMENT_THEORY":"SGP4","MEAN_ANOMALY":"90.9343","PERIAPSIS":"558.105","BSTAR":"0.00040343000000","APOAPSIS":"560.009","EPOCH":"2023-04-10T20:24:07.737984","CLASSIFICATION_TYPE":"U","ELEMENT_SET_NO":"999","MEAN_MOTION":"15.02543949","REV_AT_EPOCH":"1692","OBJECT_NAME":"STARLINK-5106","OBJECT_ID":"2022-177D","DECAY_DATE":null,"MEAN_MOTION_DOT":"0.00005251"},{"EPOCH":"2023-04-10T12:20:41.705376","CLASSIFICATION_TYPE":"U","ELEMENT_SET_NO":"999","MEAN_MOTION":"15.02536538","REV_AT_EPOCH":"1687","OBJECT_NAME":"STARLINK-4643","DECAY_DATE":null,"OBJECT_ID":"2022-177E","MEAN_MOTION_DOT":"0.00000586","TLE_LINE2":"2 54824  43.0025 155.9368 0001422 260.6990  99.3692 15.02536538 16875","MEAN_MOTION_DDOT":"0.0000000000000","TIME_SYSTEM":"UTC","CENTER_NAME":"EARTH","MEAN_ELEMENT_THEORY":"SGP4","MEAN_ANOMALY":"99.3692","PERIAPSIS":"558.093","BSTAR":"0.00005844600000","APOAPSIS":"560.066","GP_ID":"229851165","OBJECT_TYPE":"PAYLOAD","SITE":"AFETR","RCS_SIZE":"LARGE","SEMIMAJOR_AXIS":"6937.215","REF_FRAME":"TEME","NORAD_CAT_ID":"54824","EPHEMERIS_TYPE":"0","RA_OF_ASC_NODE":"155.9368","LAUNCH_DATE":"2022-12-28","COUNTRY_CODE":"US","ARG_OF_PERICENTER":"260.6990","TLE_LINE1":"1 54824U 22177E   23100.51437159  .00000586  00000-0  58446-4 0  9993","ECCENTRICITY":"0.00014220","INCLINATION":"43.0025","PERIOD":"95.838","FILE":"3885195"},{"TLE_LINE2":"2 54825  42.9952 154.0917 0000414 340.3814  19.7012 15.02527623 16927","TIME_SYSTEM":"UTC","MEAN_MOTION_DDOT":"0.0000000000000","CENTER_NAME":"EARTH","MEAN_ELEMENT_THEORY":"SGP4","APOAPSIS":"559.395","BSTAR":"-0.00025965000000","MEAN_ANOMALY":"19.7012","PERIAPSIS":"558.820","CLASSIFICATION_TYPE":"U","EPOCH":"2023-04-10T20:11:20.780736","MEAN_MOTION":"15.02527623","ELEMENT_SET_NO":"999","DECAY_DATE":null,"OBJECT_ID":"2022-177F","OBJECT_NAME":"STARLINK-4801","REV_AT_EPOCH":"1692","MEAN_MOTION_DOT":"-0.00003708","TLE_LINE1":"1 54825U 22177F   23100.84121274 -.00003708  00000-0 -25965-3 0  9998","ECCENTRICITY":"0.00004140","ARG_OF_PERICENTER":"340.3814","COUNTRY_CODE":"US","PERIOD":"95.839","INCLINATION":"42.9952","FILE":"3885363","RCS_SIZE":"LARGE","SEMIMAJOR_AXIS":"6937.242","SITE":"AFETR","OBJECT_TYPE":"PAYLOAD","GP_ID":"229882123","NORAD_CAT_ID":"54825","REF_FRAME":"TEME","EPHEMERIS_TYPE":"0","RA_OF_ASC_NODE":"154.0917","LAUNCH_DATE":"2022-12-28"},{"TLE_LINE2":"2 54826  43.0005 154.0734 0001333 271.0964  88.9726 15.02541420 16924","MEAN_MOTION_DDOT":"0.0000000000000","TIME_SYSTEM":"UTC","CENTER_NAME":"EARTH","MEAN_ELEMENT_THEORY":"SGP4","MEAN_ANOMALY":"88.9726","PERIAPSIS":"558.140","BSTAR":"0.00027747000000","APOAPSIS":"559.990","EPOCH":"2023-04-10T20:08:09.019392","CLASSIFICATION_TYPE":"U","ELEMENT_SET_NO":"999","MEAN_MOTION":"15.02541420","REV_AT_EPOCH":"1692","OBJECT_NAME":"STARLINK-5107","DECAY_DATE":null,"OBJECT_ID":"2022-177G","MEAN_MOTION_DOT":"0.00003547","COUNTRY_CODE":"US","ARG_OF_PERICENTER":"271.0964","TLE_LINE1":"1 54826U 22177G   23100.83899328  .00003547  00000-0  27747-3 0  9999","ECCENTRICITY":"0.00013330","INCLINATION":"43.0005","PERIOD":"95.838","FILE":"3885363","GP_ID":"229882878","SITE":"AFETR","OBJECT_TYPE":"PAYLOAD","RCS_SIZE":"LARGE","SEMIMAJOR_AXIS":"6937.200","NORAD_CAT_ID":"54826","REF_FRAME":"TEME","EPHEMERIS_TYPE":"0","RA_OF_ASC_NODE":"154.0734","LAUNCH_DATE":"2022-12-28"},{"FILE":"3885363","INCLINATION":"43.0007","PERIOD":"95.838","COUNTRY_CODE":"US","ECCENTRICITY":"0.00011510","TLE_LINE1":"1 54827U 22177H   23100.83122499  .00001676  00000-0  13911-3 0  9997","ARG_OF_PERICENTER":"286.1566","LAUNCH_DATE":"2022-12-28","EPHEMERIS_TYPE":"0","RA_OF_ASC_NODE":"154.0146","NORAD_CAT_ID":"54827","REF_FRAME":"TEME","GP_ID":"229882618","SEMIMAJOR_AXIS":"6937.216","RCS_SIZE":"LARGE","SITE":"AFETR","OBJECT_TYPE":"PAYLOAD","MEAN_ANOMALY":"73.9149","PERIAPSIS":"558.282","APOAPSIS":"559.879","BSTAR":"0.00013911000000","MEAN_ELEMENT_THEORY":"SGP4","MEAN_MOTION_DDOT":"0.0000000000000","CENTER_NAME":"EARTH","TIME_SYSTEM":"UTC","TLE_LINE2":"2 54827  43.0007 154.0146 0001151 286.1566  73.9149 15.02536335 16930","MEAN_MOTION_DOT":"0.00001676","OBJECT_NAME":"STARLINK-5383","REV_AT_EPOCH":"1693","DECAY_DATE":null,"OBJECT_ID":"2022-177H","MEAN_MOTION":"15.02536335","ELEMENT_SET_NO":"999","EPOCH":"2023-04-10T19:56:57.839136","CLASSIFICATION_TYPE":"U"},{"LAUNCH_DATE":"2022-12-28","RA_OF_ASC_NODE":"153.9897","EPHEMERIS_TYPE":"0","NORAD_CAT_ID":"54828","REF_FRAME":"TEME","RCS_SIZE":"LARGE","SEMIMAJOR_AXIS":"6937.208","OBJECT_TYPE":"PAYLOAD","SITE":"AFETR","GP_ID":"229881377","FILE":"3885363","PERIOD":"95.838","INCLINATION":"43.0008","TLE_LINE1":"1 54828U 22177J   23100.82789292  .00001306  00000-0  11171-3 0  9993","ECCENTRICITY":"0.00012490","ARG_OF_PERICENTER":"285.0145","COUNTRY_CODE":"US","MEAN_MOTION_DOT":"0.00001306","OBJECT_ID":"2022-177J","DECAY_DATE":null,"OBJECT_NAME":"STARLINK-5381","REV_AT_EPOCH":"1692","MEAN_MOTION":"15.02538811","ELEMENT_SET_NO":"999","EPOCH":"2023-04-10T19:52:09.948288","CLASSIFICATION_TYPE":"U","APOAPSIS":"559.939","BSTAR":"0.00011171000000","MEAN_ANOMALY":"75.0559","PERIAPSIS":"558.206","MEAN_ELEMENT_THEORY":"SGP4","TIME_SYSTEM":"UTC","MEAN_MOTION_DDOT":"0.0000000000000","CENTER_NAME":"EARTH","TLE_LINE2":"2 54828  43.0008 153.9897 0001249 285.0145  75.0559 15.02538811 16920"},{"RA_OF_ASC_NODE":"155.9210","EPHEMERIS_TYPE":"0","LAUNCH_DATE":"2022-12-28","GP_ID":"229851917","SITE":"AFETR","OBJECT_TYPE":"PAYLOAD","SEMIMAJOR_AXIS":"6937.189","RCS_SIZE":"LARGE","NORAD_CAT_ID":"54829","REF_FRAME":"TEME","FILE":"3885195","COUNTRY_CODE":"US","ARG_OF_PERICENTER":"268.1915","TLE_LINE1":"1 54829U 22177K   23100.51214764  .00000356  00000-0  41423-4 0  9995","ECCENTRICITY":"0.00013390","INCLINATION":"43.0021","PERIOD":"95.837","REV_AT_EPOCH":"1687","OBJECT_NAME":"STARLINK-5380","OBJECT_ID":"2022-177K","DECAY_DATE":null,"MEAN_MOTION_DOT":"0.00000356","EPOCH":"2023-04-10T12:17:29.556096","CLASSIFICATION_TYPE":"U","ELEMENT_SET_NO":"999","MEAN_MOTION":"15.02544850","MEAN_ELEMENT_THEORY":"SGP4","PERIAPSIS":"558.125","MEAN_ANOMALY":"91.8774","BSTAR":"0.00004142300000","APOAPSIS":"559.983","TLE_LINE2":"2 54829  43.0021 155.9210 0001339 268.1915  91.8774 15.02544850 16873","CENTER_NAME":"EARTH","MEAN_MOTION_DDOT":"0.0000000000000","TIME_SYSTEM":"UTC"},{"TIME_SYSTEM":"UTC","MEAN_MOTION_DDOT":"0.0000000000000","CENTER_NAME":"EARTH","TLE_LINE2":"2 54830  43.0000 155.0321 0001182 289.8077  70.2638 15.02540777 16897","APOAPSIS":"559.887","BSTAR":"0.00026892000000","PERIAPSIS":"558.247","MEAN_ANOMALY":"70.2638","MEAN_ELEMENT_THEORY":"SGP4","MEAN_MOTION":"15.02540777","ELEMENT_SET_NO":"999","CLASSIFICATION_TYPE":"U","EPOCH":"2023-04-10T14:56:59.529408","MEAN_MOTION_DOT":"0.00003431","OBJECT_ID":"2022-177L","DECAY_DATE":null,"OBJECT_NAME":"STARLINK-5394","REV_AT_EPOCH":"1689","PERIOD":"95.838","INCLINATION":"43.0000","ECCENTRICITY":"0.00011820","TLE_LINE1":"1 54830U 22177L   23100.62291122  .00003431  00000-0  26892-3 0  9991","ARG_OF_PERICENTER":"289.8077","COUNTRY_CODE":"US","FILE":"3885363","REF_FRAME":"TEME","NORAD_CAT_ID":"54830","SEMIMAJOR_AXIS":"6937.202","RCS_SIZE":"LARGE","OBJECT_TYPE":"PAYLOAD","SITE":"AFETR","GP_ID":"229882379","LAUNCH_DATE":"2022-12-28","RA_OF_ASC_NODE":"155.0321","EPHEMERIS_TYPE":"0"}];
